org_id,abbrev,name,postal_code,street,city
1,SKLYYF,Cassin LLC,00350,60 Pepper Wood Street,Āshkhāneh
2,MANKTP,Kuhn Group,27327,50303 Magdeline Court,Yushu
3,VIHRJX,"Gaylord, Shanahan and Walker",96911,3777 Buena Vista Terrace,Novocherkassk
4,WXGXWI,Beatty Group,70899,96 Canary Crossing,Jaraguá do Sul
5,FZAKML,D'Amore Inc,88766,88 Pawling Junction,Warungawi
6,LQKOMH,"Weimann, Abernathy and Terry",76308,5640 Florence Junction,Berezne
7,LNYWZY,VonRueden-Romaguera,84395,49121 Sundown Park,Aksakovo
8,SOCNVU,Walter-Towne,41182,748 Ramsey Pass,Bogotá
9,NWEMDM,"Trantow, Veum and Rutherford",67343,65 Briar Crest Road,Escada
10,ZACIKQ,"Terry, Vandervort and Steuber",93003,2120 Moland Terrace,Ol’gino
11,AOBTIN,Hintz and Sons,57416,3922 Mallory Plaza,Jirjā
12,YMVTBS,Pollich-Balistreri,64883,294 Prentice Court,Peabiru
13,AXNWXJ,Stark Inc,74197,08 Autumn Leaf Alley,Jiuhe
14,IMXXNC,Stiedemann-Fay,01354,539 Weeping Birch Street,Inawashiro
15,TZNFFE,Borer Inc,39325,48556 Cambridge Hill,Mbinga
16,HILAGL,Kertzmann-Beer,08651,80652 Memorial Pass,Murfreesboro
17,CEXZWD,Gerhold-Satterfield,36593,716 Susan Place,Grand Rapids
18,PLEITP,Langworth LLC,35194,3457 Melody Place,Kalá Déndra
19,IDYFQC,Flatley-Kuhn,91180,95 Commercial Park,Chang’an
20,EXKJIM,McDermott-Block,06902,14 Hayes Park,Sukumo
21,DUWAPV,"Sawayn, Walker and Kub",24741,6282 Sloan Place,Cliza
22,KOTTQC,"Jenkins, Will and Reichert",31347,511 Clarendon Junction,Nanyang
23,WHEFAH,"Bode, McGlynn and Zboncak",60914,1 Maryland Street,Kasakh
24,TCCWBB,Carter-Upton,85632,523 West Hill,San Benito Abad
25,KHPAES,Marquardt Inc,25640,638 Namekagon Center,Skovorodino
26,DISAZD,"Fritsch, Gibson and Langworth",19752,3 Ronald Regan Park,Thành Phố Nam Định
27,DLUXTJ,Block Inc,59552,493 Norway Maple Street,Malbork
28,AMAPHJ,Weimann-Moore,93943,3 South Pass,Nassarawa
29,XLSJTM,Welch LLC,00284,7 Fieldstone Plaza,Koran
30,FUAXPO,"Hermiston, Zboncak and Mante",52700,43176 Helena Terrace,Xinglongquan
31,XRZGZR,Herzog Group,55108,424 Merrick Alley,Monte Novo
32,RSGGEF,Armstrong Group,41618,177 Banding Circle,Tando Jām
33,PSOKZK,Mann LLC,34945,450 Meadow Vale Park,Kościelec
34,QFAFKV,Cummerata LLC,20419,53437 Larry Trail,Alexandria
35,HJTIYD,Carter Group,06432,6464 Rusk Drive,Oktyabr’sk
36,XTTFPO,Cole LLC,24572,0772 Kedzie Circle,Cibunar
37,IMHPAE,Larson-Goodwin,24689,135 Stang Hill,Huddinge
38,PIGEXD,Robel-Crist,93689,67324 Sachtjen Way,Bicas
39,ISYNNF,"Hand, Rutherford and Schimmel",93960,98601 Heath Plaza,Hanchang
40,TCLNUW,Kautzer LLC,20174,8 Duke Terrace,Rymättylä
41,QWUHNO,Cummerata and Sons,25934,44775 David Lane,Palamadu
42,JKSNZL,Dickens Inc,51082,1272 Lien Plaza,Mirošov
43,XLFWMT,Dicki-Koelpin,81448,8 Ridgeview Drive,Monjarás
44,KBRWUF,Bahringer and Sons,20092,7 Petterle Place,Mauren
45,BLDKET,"Bashirian, Pfeffer and Schowalter",60516,7150 Brickson Park Street,Washington
46,HRVTCK,"Roob, Gerhold and Ritchie",44223,3 Hansons Court,Colonia Nicolich
47,RYREAM,"Bartoletti, Kilback and Spinka",17316,1 American Parkway,Kefar Tavor
48,KORNJA,Wisoky Inc,99656,014 Sundown Hill,Yasynuvata
49,OMEEOE,Sporer LLC,90422,73 Fairview Drive,Paradise
50,LPJIUW,Moen-Bartoletti,08307,111 Clarendon Circle,Cibiru
51,YBRLKV,Hane-Lind,40135,439 Katie Parkway,Kowingir
52,JYLVZZ,"Ernser, Nitzsche and Abernathy",56599,68 7th Road,Castellon De La Plana/Castello De La Pla
53,PFMTMS,Haley-Feeney,25863,75748 Melody Street,Gazli
54,HWLCLO,Murray-Zulauf,30074,171 Express Alley,Ning’er
55,SQVKRX,"Rodriguez, Nolan and Padberg",68747,9 Prairie Rose Park,Si Racha
56,MQEWOU,"Hane, Champlin and Labadie",57347,34760 Division Lane,Rudnyy
57,PJVLXY,"Torp, Pacocha and Kirlin",68401,34 Westridge Terrace,Shouyan
58,JHVNSX,Beier Group,28583,667 Stuart Place,Gosë e Madhe
59,ONRZTM,Johnson Inc,00107,39794 Melvin Crossing,Arlington
60,KLMGVN,Parisian-Murazik,81994,096 Fuller Crossing,Morrelgonj
61,ETFYOS,Ward-Goodwin,55051,44218 Hooker Court,Mueang Suang
62,KJUZYE,"Turcotte, Kertzmann and Bartell",96538,67177 Mockingbird Drive,Charlemagne
63,DNYITD,Jakubowski-Ratke,86936,69654 Roxbury Junction,Áno Liósia
64,MWWPYC,Willms and Sons,95592,3248 Coolidge Lane,Mieszkowice
65,IHNUYV,Jenkins-Strosin,22919,709 Fuller Place,Tiblawan
66,RLFSBR,"Hettinger, Wuckert and Miller",34937,5457 Esch Alley,Nawābganj
67,CLYUYG,"Thiel, Reilly and Turcotte",03526,37305 Montana Trail,Kitakami
68,GPZNVI,"Kihn, Ortiz and Ortiz",39638,34 Hayes Hill,Bečmen
69,KPTWBT,"West, Kub and Schinner",07903,84196 Lukken Drive,Stavyshche
70,AEQWKN,"Lesch, Mertz and Corkery",00210,9045 Birchwood Hill,Tiechanggou
71,MAWOKV,Kuvalis-Kerluke,73297,47 Schmedeman Terrace,Nioki
72,YWUNZL,Kessler-Altenwerth,87954,29 Katie Avenue,Červená Voda
73,HPOPTD,Koch Inc,90316,814 Sunbrook Trail,Duko
74,YYHPQP,Parisian-Mayert,48046,09 Waywood Terrace,Jingyang
75,QSOYCB,"Kuphal, McGlynn and Bartoletti",64674,17 David Park,Dzuunmod
76,QCLUYZ,Cartwright Group,02432,08681 Thackeray Trail,Baturinggit Kaja
77,HLKKLW,Mann-Hermann,69348,43 Troy Terrace,Jatiwangi
78,YFYZIO,Hand-White,28416,57713 Pine View Drive,Parachinar
79,TDEVLU,Bayer-Block,49904,9 Clove Way,Vespasiano
80,LGDQUZ,Rippin and Sons,68126,8776 1st Point,Tikiw
81,SEAOBI,Witting-Jerde,50517,677 Fulton Trail,Montauban
82,VMTWRM,Mills and Sons,37155,85 Bultman Trail,Laliki
83,KWYGFW,Goldner-Armstrong,40682,66592 Wayridge Center,Oras
84,BQHAJO,Heller-Lowe,83397,147 Fairfield Trail,Paulba
85,TJHEJA,Runolfsdottir-Hackett,87921,608 4th Trail,Cali
86,ZXWLGG,"Okuneva, Rutherford and Vandervort",22959,53362 Starling Point,La Roche-sur-Yon
87,COYFCY,Schroeder LLC,31003,4 Westport Point,Linxi
88,AFKWSW,Kuhn-Skiles,26746,0485 Schurz Circle,Chang’an
89,SSDSQE,"Stamm, Hills and Bashirian",40090,3233 Talmadge Street,Agía Varvára
90,BQAJBW,"Bergnaum, Huel and Gleason",65103,92016 Scoville Parkway,Baborów
