Organization ID,Achronym,Name,Postal code,Street,City
50,CCPHM  ,Donnelly Inc,56722,0290 6th Road,Bedalewun
5,DLUFX  ,Prohaska Inc,55062,50 Blaine Drive,Ngkiong
24,YGHZF  ,Sipes LLC,94509,7 Anderson Avenue,Duraznopampa
37,LLBTO  ,Boyer Inc,45268,53084 Quincy Place,Końskowola
17,WSQEQ  ,Heaney-Koss,47456,3 Nelson Alley,Jaguarão
56,ZAWJH  ,"Goldner, Sanford and Dach",14400,2 Hoffman Circle,Upernavik
5,RUXYX  ,Hickle Group,90468,3 Bayside Lane,Santa Bárbara
39,RFFPO  ,Weimann Inc,60536,13 Macpherson Court,Eastern Suburbs Mc
44,KPFWA  ,"Muller, Reynolds and Breitenberg",39582,00177 Beilfuss Street,Bitkine
47,FFSPD  ,Legros-Lowe,87222,865 Melby Court,Kuznetsovs’k
58,XJBUA  ,Roob Group,49260,1550 Kinsman Terrace,Chrysó
51,JFJYQ  ,Wunsch LLC,94433,4168 American Ash Court,Zboriv
57,LEQBO  ,"Langosh, Cassin and West",53269,000 Hintze Road,Ferraria
38,LLDQQ  ,Gleichner-Sporer,74926,8 Kim Place,Jincheng
52,VQKJS  ,Heidenreich-Ziemann,16872,1 Becker Point,Mungwi
17,OJDMN  ,Schroeder-Buckridge,26440,9811 Del Mar Park,Dadian
39,YESCL  ,Treutel Group,08971,7523 Main Drive,Suure-Jaani
51,DGRXF  ,Padberg Inc,87682,431 Lakewood Gardens Place,Kesugihan
60,SQEAB  ,Krajcik Inc,74098,360 Shoshone Road,Tenkodogo
6,TFGQP  ,"Heidenreich, Towne and Mosciski",30461,2962 Nobel Crossing,Langqi
43,RFXSR  ,"Rolfson, Cartwright and Harber",08633,78 Lakeland Place,Chengguan
37,UHXPU  ,Maggio LLC,99018,20668 Sauthoff Center,Batelov
10,YAATX  ,Rohan-Rutherford,17539,40665 Lien Trail,Hagerstown
40,ENPPH  ,Rutherford-Leffler,82336,8464 Helena Junction,Bergen
43,JDQOS  ,Gutkowski Group,60099,04 Pond Court,Rerawere
28,ZLUJR  ,Bode Inc,28973,094 Hintze Avenue,Şafwá
14,ODDSG  ,Hyatt LLC,75788,8 Charing Cross Way,Volgo-Kaspiyskiy
14,QQAAI  ,"Grady, Carroll and Harris",93264,66348 Maywood Street,Songjianghe
24,MQAAE  ,"Friesen, O'Hara and Walker",49428,87842 Merrick Road,Malitubog
14,IVLGW  ,"Kovacek, Anderson and Hahn",10144,6 Helena Place,Shanghe
22,KRGQP  ,Pfeffer-Blick,74263,01 Morrow Drive,Datong
21,SAYXY  ,Kuhlman LLC,34384,8520 Welch Parkway,Alanga
17,TVHRU  ,Pacocha LLC,07215,77105 Manufacturers Drive,Wumahe
60,YBEFB  ,"Breitenberg, Kerluke and Reichert",16789,8 Cody Trail,Youwei
58,KUFYA  ,Collier Group,21516,47 Butterfield Drive,Syanno
35,AEOYY  ,Cruickshank-Harber,38649,82034 Bellgrove Street,Myingyan
59,BGWXM  ,"Jones, Davis and McCullough",99412,7 Wayridge Junction,Cururupu
29,ZOWDC  ,Wintheiser Inc,76241,13568 Manufacturers Drive,Dębno
34,OFTBD  ,Zieme LLC,25281,82 Kim Way,Xinyan
55,UKEUL  ,"Bergstrom, Davis and Dibbert",59036,5142 Tomscot Road,Baz
33,TWMDZ  ,Daniel-Morar,05031,14 Hooker Avenue,Marvdasht
5,DJTIK  ,Grady Inc,38094,5 Manley Alley,Dongjiao
53,QQNOK  ,Lockman-Waelchi,22697,868 Eastlawn Road,Semeljci
8,KIYPK  ,Gusikowski Group,55799,42 Mcbride Alley,Zombo
38,QQKYU  ,Wolf-Abshire,88785,6 Knutson Hill,Xinxian
38,ZWICA  ,Wyman-Jaskolski,23886,1 Eastwood Street,Kota Kinabalu
39,BIUMO  ,Stark Group,38181,09 Monica Place,Khovd
50,LUOWF  ,Leuschke-Krajcik,49449,0614 Judy Hill,Le Mans
8,FQLLO  ,Lehner LLC,03610,5920 Wayridge Court,Pristen’
26,IJFFZ  ,Langworth Group,04911,3705 Moland Center,Gastello
50,SYKOE  ,Renner-Windler,31108,83967 Westport Terrace,Sezemice
6,SDNXT  ,Kuhic and Sons,75544,9865 Mcbride Way,Veliki Grđevac
56,RROCT  ,"Pfeffer, Shanahan and Bode",83671,31 Novick Hill,Tampakan
28,OXOXO  ,Ziemann-Klocko,45857,1464 Morrow Crossing,Shu
20,GADQL  ,"Shields, Quigley and Raynor",13593,8696 Brown Trail,Fenais da Ajuda
39,HURZF  ,Considine Group,07843,3714 Pankratz Place,Maputsoe
22,RSXGU  ,Lind-Kirlin,37049,71626 Ohio Avenue,Agdzhabedy
22,THYVO  ,Paucek-Okuneva,53358,40211 Donald Lane,Curug
40,HJOTS  ,West and Sons,53370,4013 Porter Park,Shihuang
25,COLCP  ,Armstrong and Sons,40799,4 Memorial Place,Yezhou
